CCSDS_OMM_VERS = 2.0
CREATION_DATE  = 
ORIGINATOR     = 

OBJECT_NAME    = STARLINK-36190
OBJECT_ID      = 2025-293AC
CENTER_NAME    = EARTH
REF_FRAME      = TEME
TIME_SYSTEM    = UTC
MEAN_ELEMENT_THEORY = SGP/SGP4

EPOCH          = 2026-01-07T09:41:04.084800
MEAN_MOTION    = 15.52547243
ECCENTRICITY   = .0002038
INCLINATION    = 70.0001
RA_OF_ASC_NODE = 251.1424
ARG_OF_PERICENTER = 277.7923
MEAN_ANOMALY   = 82.3033

EPHEMERIS_TYPE = 0
CLASSIFICATION_TYPE = U
NORAD_CAT_ID   = 67029
ELEMENT_SET_NO = 999
REV_AT_EPOCH   = 565
BSTAR          = .15838E-2
MEAN_MOTION_DOT = .98577E-3
MEAN_MOTION_DDOT = 0

CCSDS_OMM_VERS = 2.0
CREATION_DATE  = 
ORIGINATOR     = 

OBJECT_NAME    = STARLINK-36138
OBJECT_ID      = 2025-294A
CENTER_NAME    = EARTH
REF_FRAME      = TEME
TIME_SYSTEM    = UTC
MEAN_ELEMENT_THEORY = SGP/SGP4

EPOCH          = 2026-01-07T12:00:01.999296
MEAN_MOTION    = 15.40639490
ECCENTRICITY   = .0001114
INCLINATION    = 43.0006
RA_OF_ASC_NODE = 28.1396
ARG_OF_PERICENTER = 269.9300
MEAN_ANOMALY   = 288.9897

EPHEMERIS_TYPE = 0
CLASSIFICATION_TYPE = U
NORAD_CAT_ID   = 67030
ELEMENT_SET_NO = 999
REV_AT_EPOCH   = 422
BSTAR          = .23132E-2
MEAN_MOTION_DOT = .9737E-3
MEAN_MOTION_DDOT = 0

CCSDS_OMM_VERS = 2.0
CREATION_DATE  = 
ORIGINATOR     = 

OBJECT_NAME    = STARLINK-36150
OBJECT_ID      = 2025-294B
CENTER_NAME    = EARTH
REF_FRAME      = TEME
TIME_SYSTEM    = UTC
MEAN_ELEMENT_THEORY = SGP/SGP4

EPOCH          = 2026-01-07T09:48:01.718208
MEAN_MOTION    = 15.40736448
ECCENTRICITY   = .0001401
INCLINATION    = 43.0011
RA_OF_ASC_NODE = 28.7851
ARG_OF_PERICENTER = 231.4457
MEAN_ANOMALY   = 128.6274

EPHEMERIS_TYPE = 0
CLASSIFICATION_TYPE = U
NORAD_CAT_ID   = 67031
ELEMENT_SET_NO = 999
REV_AT_EPOCH   = 537
BSTAR          = .12375E-2
MEAN_MOTION_DOT = .51806E-3
MEAN_MOTION_DDOT = 0

CCSDS_OMM_VERS = 2.0
CREATION_DATE  = 
ORIGINATOR     = 

OBJECT_NAME    = STARLINK-36131
OBJECT_ID      = 2025-294C
CENTER_NAME    = EARTH
REF_FRAME      = TEME
TIME_SYSTEM    = UTC
MEAN_ELEMENT_THEORY = SGP/SGP4

EPOCH          = 2026-01-07T08:24:20.918304
MEAN_MOTION    = 15.40704535
ECCENTRICITY   = .0001659
INCLINATION    = 43.0004
RA_OF_ASC_NODE = 29.2101
ARG_OF_PERICENTER = 258.0675
MEAN_ANOMALY   = 101.9996

EPHEMERIS_TYPE = 0
CLASSIFICATION_TYPE = U
NORAD_CAT_ID   = 67032
ELEMENT_SET_NO = 999
REV_AT_EPOCH   = 536
BSTAR          = .12016E-2
MEAN_MOTION_DOT = .50229E-3
MEAN_MOTION_DDOT = 0

CCSDS_OMM_VERS = 2.0
CREATION_DATE  = 
ORIGINATOR     = 

OBJECT_NAME    = STARLINK-36137
OBJECT_ID      = 2025-294D
CENTER_NAME    = EARTH
REF_FRAME      = TEME
TIME_SYSTEM    = UTC
MEAN_ELEMENT_THEORY = SGP/SGP4

EPOCH          = 2026-01-07T08:21:07.131744
MEAN_MOTION    = 15.40725262
ECCENTRICITY   = .0001966
INCLINATION    = 43.0031
RA_OF_ASC_NODE = 29.1916
ARG_OF_PERICENTER = 270.8673
MEAN_ANOMALY   = 89.1958

EPHEMERIS_TYPE = 0
CLASSIFICATION_TYPE = U
NORAD_CAT_ID   = 67033
ELEMENT_SET_NO = 999
REV_AT_EPOCH   = 536
BSTAR          = .94666E-3
MEAN_MOTION_DOT = .3948E-3
MEAN_MOTION_DDOT = 0

CCSDS_OMM_VERS = 2.0
CREATION_DATE  = 
ORIGINATOR     = 

OBJECT_NAME    = STARLINK-36140
OBJECT_ID      = 2025-294E
CENTER_NAME    = EARTH
REF_FRAME      = TEME
TIME_SYSTEM    = UTC
MEAN_ELEMENT_THEORY = SGP/SGP4

EPOCH          = 2026-01-07T06:38:05.973792
MEAN_MOTION    = 15.40718772
ECCENTRICITY   = .00008086
INCLINATION    = 43.0003
RA_OF_ASC_NODE = 29.5148
ARG_OF_PERICENTER = 226.4115
MEAN_ANOMALY   = 133.6674

EPHEMERIS_TYPE = 0
CLASSIFICATION_TYPE = U
NORAD_CAT_ID   = 67034
ELEMENT_SET_NO = 999
REV_AT_EPOCH   = 535
BSTAR          = .14887311E-2
MEAN_MOTION_DOT = .62433E-3
MEAN_MOTION_DDOT = 0

CCSDS_OMM_VERS = 2.0
CREATION_DATE  = 
ORIGINATOR     = 

OBJECT_NAME    = STARLINK-36085
OBJECT_ID      = 2025-294F
CENTER_NAME    = EARTH
REF_FRAME      = TEME
TIME_SYSTEM    = UTC
MEAN_ELEMENT_THEORY = SGP/SGP4

EPOCH          = 2026-01-07T12:00:01.999296
MEAN_MOTION    = 15.43280346
ECCENTRICITY   = .0001486
INCLINATION    = 43.0000
RA_OF_ASC_NODE = 27.8120
ARG_OF_PERICENTER = 276.7594
MEAN_ANOMALY   = 57.2340

EPHEMERIS_TYPE = 0
CLASSIFICATION_TYPE = U
NORAD_CAT_ID   = 67035
ELEMENT_SET_NO = 999
REV_AT_EPOCH   = 423
BSTAR          = -.75408E-1
MEAN_MOTION_DOT = -.3026037E-1
MEAN_MOTION_DDOT = 0

CCSDS_OMM_VERS = 2.0
CREATION_DATE  = 
ORIGINATOR     = 

OBJECT_NAME    = STARLINK-36125
OBJECT_ID      = 2025-294G
CENTER_NAME    = EARTH
REF_FRAME      = TEME
TIME_SYSTEM    = UTC
MEAN_ELEMENT_THEORY = SGP/SGP4

EPOCH          = 2026-01-06T12:49:31.980288
MEAN_MOTION    = 15.50651953
ECCENTRICITY   = .00041665
INCLINATION    = 43.0046
RA_OF_ASC_NODE = 33.4029
ARG_OF_PERICENTER = 266.5577
MEAN_ANOMALY   = 93.4806

EPHEMERIS_TYPE = 0
CLASSIFICATION_TYPE = U
NORAD_CAT_ID   = 67036
ELEMENT_SET_NO = 999
REV_AT_EPOCH   = 524
BSTAR          = .17649416E-2
MEAN_MOTION_DOT = .104892E-2
MEAN_MOTION_DDOT = 0

CCSDS_OMM_VERS = 2.0
CREATION_DATE  = 
ORIGINATOR     = 

OBJECT_NAME    = STARLINK-35732
OBJECT_ID      = 2025-294H
CENTER_NAME    = EARTH
REF_FRAME      = TEME
TIME_SYSTEM    = UTC
MEAN_ELEMENT_THEORY = SGP/SGP4

EPOCH          = 2026-01-05T12:04:25.223808
MEAN_MOTION    = 15.50661262
ECCENTRICITY   = .00030436
INCLINATION    = 43.0033
RA_OF_ASC_NODE = 39.4233
ARG_OF_PERICENTER = 272.5981
MEAN_ANOMALY   = 87.4531

EPHEMERIS_TYPE = 0
CLASSIFICATION_TYPE = U
NORAD_CAT_ID   = 67037
ELEMENT_SET_NO = 999
REV_AT_EPOCH   = 508
BSTAR          = .14987859E-2
MEAN_MOTION_DOT = .88858E-3
MEAN_MOTION_DDOT = 0

CCSDS_OMM_VERS = 2.0
CREATION_DATE  = 
ORIGINATOR     = 

OBJECT_NAME    = STARLINK-35775
OBJECT_ID      = 2025-294J
CENTER_NAME    = EARTH
REF_FRAME      = TEME
TIME_SYSTEM    = UTC
MEAN_ELEMENT_THEORY = SGP/SGP4

EPOCH          = 2026-01-07T12:00:01.999296
MEAN_MOTION    = 15.40639418
ECCENTRICITY   = .0002005
INCLINATION    = 43.0007
RA_OF_ASC_NODE = 27.9575
ARG_OF_PERICENTER = 255.9174
MEAN_ANOMALY   = 17.5398

EPHEMERIS_TYPE = 0
CLASSIFICATION_TYPE = U
NORAD_CAT_ID   = 67038
ELEMENT_SET_NO = 999
REV_AT_EPOCH   = 434
BSTAR          = .2814E-2
MEAN_MOTION_DOT = .118855E-2
MEAN_MOTION_DDOT = 0

CCSDS_OMM_VERS = 2.0
CREATION_DATE  = 
ORIGINATOR     = 

OBJECT_NAME    = STARLINK-35705
OBJECT_ID      = 2025-294K
CENTER_NAME    = EARTH
REF_FRAME      = TEME
TIME_SYSTEM    = UTC
MEAN_ELEMENT_THEORY = SGP/SGP4

EPOCH          = 2026-01-07T02:41:53.392128
MEAN_MOTION    = 15.50610317
ECCENTRICITY   = .00017148
INCLINATION    = 43.0006
RA_OF_ASC_NODE = 29.9977
ARG_OF_PERICENTER = 259.8336
MEAN_ANOMALY   = 100.2331

EPHEMERIS_TYPE = 0
CLASSIFICATION_TYPE = U
NORAD_CAT_ID   = 67039
ELEMENT_SET_NO = 999
REV_AT_EPOCH   = 533
BSTAR          = .15979846E-2
MEAN_MOTION_DOT = .94652E-3
MEAN_MOTION_DDOT = 0

CCSDS_OMM_VERS = 2.0
CREATION_DATE  = 
ORIGINATOR     = 

OBJECT_NAME    = STARLINK-35786
OBJECT_ID      = 2025-294L
CENTER_NAME    = EARTH
REF_FRAME      = TEME
TIME_SYSTEM    = UTC
MEAN_ELEMENT_THEORY = SGP/SGP4

EPOCH          = 2026-01-07T08:04:59.741184
MEAN_MOTION    = 15.40716556
ECCENTRICITY   = .0001803
INCLINATION    = 43.0036
RA_OF_ASC_NODE = 29.1075
ARG_OF_PERICENTER = 253.6882
MEAN_ANOMALY   = 106.3776

EPHEMERIS_TYPE = 0
CLASSIFICATION_TYPE = U
NORAD_CAT_ID   = 67040
ELEMENT_SET_NO = 999
REV_AT_EPOCH   = 536
BSTAR          = .91744E-3
MEAN_MOTION_DOT = .38233E-3
MEAN_MOTION_DDOT = 0

CCSDS_OMM_VERS = 2.0
CREATION_DATE  = 
ORIGINATOR     = 

OBJECT_NAME    = STARLINK-35765
OBJECT_ID      = 2025-294M
CENTER_NAME    = EARTH
REF_FRAME      = TEME
TIME_SYSTEM    = UTC
MEAN_ELEMENT_THEORY = SGP/SGP4

EPOCH          = 2026-01-07T10:25:16.556160
MEAN_MOTION    = 15.50306150
ECCENTRICITY   = .0004167
INCLINATION    = 43.0022
RA_OF_ASC_NODE = 28.1106
ARG_OF_PERICENTER = 317.8283
MEAN_ANOMALY   = 42.2256

EPHEMERIS_TYPE = 0
CLASSIFICATION_TYPE = U
NORAD_CAT_ID   = 67041
ELEMENT_SET_NO = 999
REV_AT_EPOCH   = 538
BSTAR          = .15922E-2
MEAN_MOTION_DOT = .93297E-3
MEAN_MOTION_DDOT = 0

CCSDS_OMM_VERS = 2.0
CREATION_DATE  = 
ORIGINATOR     = 

OBJECT_NAME    = STARLINK-35773
OBJECT_ID      = 2025-294N
CENTER_NAME    = EARTH
REF_FRAME      = TEME
TIME_SYSTEM    = UTC
MEAN_ELEMENT_THEORY = SGP/SGP4

EPOCH          = 2026-01-07T12:00:01.999296
MEAN_MOTION    = 15.40612967
ECCENTRICITY   = .0000854
INCLINATION    = 43.0006
RA_OF_ASC_NODE = 28.0774
ARG_OF_PERICENTER = 282.5084
MEAN_ANOMALY   = 301.3112

EPHEMERIS_TYPE = 0
CLASSIFICATION_TYPE = U
NORAD_CAT_ID   = 67042
ELEMENT_SET_NO = 999
REV_AT_EPOCH   = 442
BSTAR          = .27587E-2
MEAN_MOTION_DOT = .116371E-2
MEAN_MOTION_DDOT = 0

CCSDS_OMM_VERS = 2.0
CREATION_DATE  = 
ORIGINATOR     = 

OBJECT_NAME    = STARLINK-35901
OBJECT_ID      = 2025-294P
CENTER_NAME    = EARTH
REF_FRAME      = TEME
TIME_SYSTEM    = UTC
MEAN_ELEMENT_THEORY = SGP/SGP4

EPOCH          = 2026-01-07T12:00:01.999296
MEAN_MOTION    = 15.40644925
ECCENTRICITY   = .00013
INCLINATION    = 43.0006
RA_OF_ASC_NODE = 27.8659
ARG_OF_PERICENTER = 290.8156
MEAN_ANOMALY   = 20.0646

EPHEMERIS_TYPE = 0
CLASSIFICATION_TYPE = U
NORAD_CAT_ID   = 67043
ELEMENT_SET_NO = 999
REV_AT_EPOCH   = 442
BSTAR          = .2118E-2
MEAN_MOTION_DOT = .89045E-3
MEAN_MOTION_DDOT = 0

